{
    "links": {
        "self": "http://www.neowsapp.com/rest/v1/neo/3550887?api_key=iIulBulltgU6a56xZRHN4H3l9WmuAYTsLGpBGhQ2"
    },
    "id": "3550887",
    "neo_reference_id": "3550887",
    "name": "(2010 VC40)",
    "designation": "2010 VC40",
    "nasa_jpl_url": "http://ssd.jpl.nasa.gov/sbdb.cgi?sstr=3550887",
    "absolute_magnitude_h": 24.0,
    "estimated_diameter": {
        "kilometers": {
            "estimated_diameter_min": 0.0421264611,
            "estimated_diameter_max": 0.0941976306
        },
        "meters": {
            "estimated_diameter_min": 42.1264610556,
            "estimated_diameter_max": 94.1976305719
        },
        "miles": {
            "estimated_diameter_min": 0.0261761612,
            "estimated_diameter_max": 0.0585316759
        },
        "feet": {
            "estimated_diameter_min": 138.2101784897,
            "estimated_diameter_max": 309.0473542854
        }
    },
    "is_potentially_hazardous_asteroid": false,
    "close_approach_data": [
        {
            "close_approach_date": "2010-11-14",
            "close_approach_date_full": "2010-Nov-14 23:25",
            "epoch_date_close_approach": 1289777100000,
            "relative_velocity": {
                "kilometers_per_second": "5.4128263712",
                "kilometers_per_hour": "19486.1749363317",
                "miles_per_hour": "12107.9513097445"
            },
            "miss_distance": {
                "astronomical": "0.1823892323",
                "lunar": "70.9494113647",
                "kilometers": "27285040.663015201",
                "miles": "16954138.0941677338"
            },
            "orbiting_body": "Earth"
        },
        {
            "close_approach_date": "2183-12-04",
            "close_approach_date_full": "2183-Dec-04 09:32",
            "epoch_date_close_approach": 6750811920000,
            "relative_velocity": {
                "kilometers_per_second": "3.697908454",
                "kilometers_per_hour": "13312.4704345764",
                "miles_per_hour": "8271.8514208622"
            },
            "miss_distance": {
                "astronomical": "0.442865872",
                "lunar": "172.274824208",
                "kilometers": "66251791.14689264",
                "miles": "41166954.081652832"
            },
            "orbiting_body": "Earth"
        }
    ],
    "orbital_data": {
        "orbit_id": "11",
        "orbit_determination_date": "2017-04-06 08:55:51",
        "first_observation_date": "2010-11-07",
        "last_observation_date": "2010-12-10",
        "data_arc_in_days": 33,
        "observations_used": 26,
        "orbit_uncertainty": "7",
        "minimum_orbit_intersection": ".178157",
        "jupiter_tisserand_invariant": "3.267",
        "epoch_osculation": "2459000.5",
        "eccentricity": ".5285073570269294",
        "semi_major_axis": "2.472401762160067",
        "inclination": "6.465808580719175",
        "ascending_node_longitude": "241.8942833926084",
        "orbital_period": "1419.962887007589",
        "perihelion_distance": "1.165719241332127",
        "perihelion_argument": "169.8341272551511",
        "aphelion_distance": "3.779084282988006",
        "perihelion_time": "2458359.313945156971",
        "mean_anomaly": "162.5584597002616",
        "mean_motion": ".2535277529391343",
        "equinox": "J2000",
        "orbit_class": {
            "orbit_class_type": "AMO",
            "orbit_class_description": "Near-Earth asteroid orbits similar to that of 1221 Amor",
            "orbit_class_range": "1.017 AU < q (perihelion) < 1.3 AU"
        }
    },
    "is_sentry_object": false
}